[{"OBJECT_NAME":"STARLINK-5663","OBJECT_ID":"2023-013S","EPOCH":"2026-03-09T01:04:02.640000","MEAN_MOTION":15.02539408,"ECCENTRICITY":8.053e-5,"INCLINATION":43.0041,"RA_OF_ASC_NODE":303.7282,"ARG_OF_PERICENTER":243.6886,"MEAN_ANOMALY":116.3874,"EPHEMERIS_TYPE":0,"CLASSIFICATION_TYPE":"U","NORAD_CAT_ID":55347,"ELEMENT_SET_NO":999,"REV_AT_EPOCH":17161,"BSTAR":-0.00012622335,"MEAN_MOTION_DOT":-1.908e-5,"MEAN_MOTION_DDOT":0},{"OBJECT_NAME":"COSMOS 2251 DEB","OBJECT_ID":"1993-036BRU","EPOCH":"2026-02-21T14:09:45.153216","MEAN_MOTION":14.99001579,"ECCENTRICITY":0.0017259,"INCLINATION":74.0061,"RA_OF_ASC_NODE":146.9269,"ARG_OF_PERICENTER":277.3195,"MEAN_ANOMALY":147.2685,"EPHEMERIS_TYPE":0,"CLASSIFICATION_TYPE":"U","NORAD_CAT_ID":38062,"ELEMENT_SET_NO":999,"REV_AT_EPOCH":64090,"BSTAR":0.0019091,"MEAN_MOTION_DOT":0.00023247,"MEAN_MOTION_DDOT":0}]
